{
  "norad_id": 62660,
  "name": "FLOCK 4G-6",
  "history": [
    {
      "epoch": "2026-04-11T18:49:09.919776Z",
      "apogee_km": 483.120821246207,
      "perigee_km": 478.3827008900598,
      "latitude_deg": -7.001557716588756e-06,
      "longitude_deg": 61.32950382709266,
      "height_km": 486.21987627811393,
      "semi_major_axis_km": 6858.888761068133,
      "eccentricity": 0.0003454,
      "inclination_deg": 97.3951,
      "raan_deg": 183.6195,
      "arg_perigee_deg": 183.2067,
      "mean_anomaly_deg": 176.9151,
      "mean_motion_rev_day": 15.28347542
    },
    {
      "epoch": "2026-04-13T05:23:18.778560Z",
      "apogee_km": 483.14036806813147,
      "perigee_km": 478.23493667675393,
      "latitude_deg": -9.17470236955767e-06,
      "longitude_deg": -97.19681182302139,
      "height_km": 486.2413121493484,
      "semi_major_axis_km": 6858.824652372442,
      "eccentricity": 0.0003576,
      "inclination_deg": 97.3953,
      "raan_deg": 185.0498,
      "arg_perigee_deg": 178.0647,
      "mean_anomaly_deg": 182.0607,
      "mean_motion_rev_day": 15.2836897
    },
    {
      "epoch": "2026-04-14T11:14:36.132000Z",
      "apogee_km": 483.1872612497982,
      "perigee_km": 478.10339461268904,
      "latitude_deg": -3.688975301600757e-05,
      "longitude_deg": 174.98989301189835,
      "height_km": 486.2755048183714,
      "semi_major_axis_km": 6858.782327931243,
      "eccentricity": 0.00037061,
      "inclination_deg": 97.3956,
      "raan_deg": 186.2849,
      "arg_perigee_deg": 174.0421,
      "mean_anomaly_deg": 186.0863,
      "mean_motion_rev_day": 15.28383117
    },
    {
      "epoch": "2026-04-16T11:57:12.225888Z",
      "apogee_km": 483.23981045423625,
      "perigee_km": 477.93115925096026,
      "latitude_deg": 3.111287576466956e-05,
      "longitude_deg": 164.35424709133716,
      "height_km": 486.2776897534039,
      "semi_major_axis_km": 6858.722484852598,
      "eccentricity": 0.000387,
      "inclination_deg": 97.3955,
      "raan_deg": 188.3001,
      "arg_perigee_deg": 167.4506,
      "mean_anomaly_deg": 192.6831,
      "mean_motion_rev_day": 15.2840312
    },
    {
      "epoch": "2026-04-17T17:48:27.319104Z",
      "apogee_km": 483.2446903440159,
      "perigee_km": 477.84251915249297,
      "latitude_deg": -3.75311676720465e-05,
      "longitude_deg": 76.55030123748709,
      "height_km": 486.24673001104577,
      "semi_major_axis_km": 6858.680604748254,
      "eccentricity": 0.00039382,
      "inclination_deg": 97.3952,
      "raan_deg": 189.5351,
      "arg_perigee_deg": 164.4438,
      "mean_anomaly_deg": 195.6923,
      "mean_motion_rev_day": 15.28417119
    },
    {
      "epoch": "2026-04-18T12:39:45.735552Z",
      "apogee_km": 483.26476128939066,
      "perigee_km": 477.7406756873261,
      "latitude_deg": 2.293830687741475e-05,
      "longitude_deg": 153.7296064409941,
      "height_km": 486.220687418692,
      "semi_major_axis_km": 6858.639718488358,
      "eccentricity": 0.00040271,
      "inclination_deg": 97.3953,
      "raan_deg": 190.3155,
      "arg_perigee_deg": 161.3723,
      "mean_anomaly_deg": 198.7665,
      "mean_motion_rev_day": 15.28430786
    },
    {
      "epoch": "2026-04-19T04:22:30.715680Z",
      "apogee_km": 483.25978359753753,
      "perigee_km": 477.6938813002289,
      "latitude_deg": -1.6972996046980802e-05,
      "longitude_deg": -81.95309505954327,
      "height_km": 486.18629341988793,
      "semi_major_axis_km": 6858.613832448883,
      "eccentricity": 0.00040576,
      "inclination_deg": 97.3951,
      "raan_deg": 190.9655,
      "arg_perigee_deg": 159.6367,
      "mean_anomaly_deg": 200.5035,
      "mean_motion_rev_day": 15.28439439
    },
    {
      "epoch": "2026-04-20T03:56:37.111488Z",
      "apogee_km": 483.3161178479422,
      "perigee_km": 477.5339385444522,
      "latitude_deg": 9.837042243258056e-06,
      "longitude_deg": -75.47217068354799,
      "height_km": 486.1970715842837,
      "semi_major_axis_km": 6858.562028196197,
      "eccentricity": 0.00042153,
      "inclination_deg": 97.3948,
      "raan_deg": 191.941,
      "arg_perigee_deg": 157.546,
      "mean_anomaly_deg": 202.5965,
      "mean_motion_rev_day": 15.28456756
    },
    {
      "epoch": "2026-04-21T19:13:25.461696Z",
      "apogee_km": 483.3112794228573,
      "perigee_km": 477.33893062180414,
      "latitude_deg": -4.297847807835346e-05,
      "longitude_deg": 55.33889671408723,
      "height_km": 486.09905394718254,
      "semi_major_axis_km": 6858.46210502233,
      "eccentricity": 0.0004354,
      "inclination_deg": 97.3944,
      "raan_deg": 193.5667,
      "arg_perigee_deg": 153.581,
      "mean_anomaly_deg": 206.5652,
      "mean_motion_rev_day": 15.28490159
    },
    {
      "epoch": "2026-04-22T10:56:08.109888Z",
      "apogee_km": 483.3187261868634,
      "perigee_km": 477.26890436470876,
      "latitude_deg": 5.5294372763918375e-05,
      "longitude_deg": 179.66601898640874,
      "height_km": 486.0487542490202,
      "semi_major_axis_km": 6858.430815275786,
      "eccentricity": 0.00044105,
      "inclination_deg": 97.3942,
      "raan_deg": 194.2168,
      "arg_perigee_deg": 151.3916,
      "mean_anomaly_deg": 208.7567,
      "mean_motion_rev_day": 15.28500619
    },
    {
      "epoch": "2026-04-23T02:38:50.371008Z",
      "apogee_km": 483.3135546764688,
      "perigee_km": 477.2154755533202,
      "latitude_deg": 3.6313465594195674e-05,
      "longitude_deg": -56.00512628339448,
      "height_km": 486.0095162675853,
      "semi_major_axis_km": 6858.401515114894,
      "eccentricity": 0.00044457,
      "inclination_deg": 97.3943,
      "raan_deg": 194.867,
      "arg_perigee_deg": 150.1993,
      "mean_anomaly_deg": 209.9501,
      "mean_motion_rev_day": 15.28510414
    },
    {
      "epoch": "2026-04-24T16:21:18.254592Z",
      "apogee_km": 483.30169213545923,
      "perigee_km": 477.07570406672403,
      "latitude_deg": 1.3567599208938202e-05,
      "longitude_deg": 98.39059077888963,
      "height_km": 485.85765413459046,
      "semi_major_axis_km": 6858.325698101092,
      "eccentricity": 0.0004539,
      "inclination_deg": 97.3945,
      "raan_deg": 196.4275,
      "arg_perigee_deg": 145.6598,
      "mean_anomaly_deg": 214.4936,
      "mean_motion_rev_day": 15.2853576
    },
    {
      "epoch": "2026-04-25T19:03:51.394176Z",
      "apogee_km": 483.2657940034451,
      "perigee_km": 476.9685450249972,
      "latitude_deg": -2.943981343681206e-06,
      "longitude_deg": 57.760802886349985,
      "height_km": 485.72559757285586,
      "semi_major_axis_km": 6858.254169514221,
      "eccentricity": 0.0004591,
      "inclination_deg": 97.3945,
      "raan_deg": 197.5327,
      "arg_perigee_deg": 142.8685,
      "mean_anomaly_deg": 217.2873,
      "mean_motion_rev_day": 15.28559673
    },
    {
      "epoch": "2026-04-26T18:37:51.084480Z",
      "apogee_km": 483.22891439399154,
      "perigee_km": 476.8547858071306,
      "latitude_deg": -1.769440150447554e-05,
      "longitude_deg": 64.26945053336898,
      "height_km": 485.5789303488262,
      "semi_major_axis_km": 6858.178850100561,
      "eccentricity": 0.00046471,
      "inclination_deg": 97.3947,
      "raan_deg": 198.5079,
      "arg_perigee_deg": 139.9403,
      "mean_anomaly_deg": 220.218,
      "mean_motion_rev_day": 15.28584854
    },
    {
      "epoch": "2026-04-27T18:11:49.502976Z",
      "apogee_km": 483.2032528521604,
      "perigee_km": 476.7579939097068,
      "latitude_deg": -4.1420114063271306e-05,
      "longitude_deg": 70.78351337577932,
      "height_km": 485.4475218635935,
      "semi_major_axis_km": 6858.117623380934,
      "eccentricity": 0.0004699,
      "inclination_deg": 97.3949,
      "raan_deg": 199.4832,
      "arg_perigee_deg": 137.3293,
      "mean_anomaly_deg": 222.8312,
      "mean_motion_rev_day": 15.28605324
    },
    {
      "epoch": "2026-04-28T19:20:02.523264Z",
      "apogee_km": 483.16054185751636,
      "perigee_km": 476.67967788868646,
      "latitude_deg": 4.542342413849418e-05,
      "longitude_deg": 53.73711387913577,
      "height_km": 485.3190818055239,
      "semi_major_axis_km": 6858.057109873101,
      "eccentricity": 0.0004725,
      "inclination_deg": 97.395,
      "raan_deg": 200.5234,
      "arg_perigee_deg": 135.263,
      "mean_anomaly_deg": 224.8992,
      "mean_motion_rev_day": 15.28625556
    },
    {
      "epoch": "2026-04-29T18:53:58.733376Z",
      "apogee_km": 483.10287443370544,
      "perigee_km": 476.6275487455214,
      "latitude_deg": -4.404501090265704e-06,
      "longitude_deg": 60.26040647478465,
      "height_km": 485.18329144237947,
      "semi_major_axis_km": 6858.002211589613,
      "eccentricity": 0.0004721,
      "inclination_deg": 97.3949,
      "raan_deg": 201.4987,
      "arg_perigee_deg": 133.3165,
      "mean_anomaly_deg": 226.8469,
      "mean_motion_rev_day": 15.28643911
    },
    {
      "epoch": "2026-04-30T15:19:22.641600Z",
      "apogee_km": 483.1007817849959,
      "perigee_km": 476.52853239394153,
      "latitude_deg": 1.5250046651136048e-05,
      "longitude_deg": 113.91743064405846,
      "height_km": 485.03906998104765,
      "semi_major_axis_km": 6857.951657089468,
      "eccentricity": 0.00047917,
      "inclination_deg": 97.3948,
      "raan_deg": 202.3441,
      "arg_perigee_deg": 130.3561,
      "mean_anomaly_deg": 229.8098,
      "mean_motion_rev_day": 15.28660814
    },
    {
      "epoch": "2026-05-02T05:01:36.487776Z",
      "apogee_km": 483.0270610925445,
      "perigee_km": 476.37770002915295,
      "latitude_deg": 4.14317881337818e-05,
      "longitude_deg": -91.62810905538875,
      "height_km": 484.77108216358073,
      "semi_major_axis_km": 6857.839380560848,
      "eccentricity": 0.0004848,
      "inclination_deg": 97.3949,
      "raan_deg": 203.9047,
      "arg_perigee_deg": 126.3944,
      "mean_anomaly_deg": 233.7744,
      "mean_motion_rev_day": 15.28698355
    }
  ]
}